[
  {
    "COMMENT": "GENERATED VIA SPACETRACK.ORG API",
    "ORIGINATOR": "18 SPCS",
    "NORAD_CAT_ID": "43682",
    "OBJECT_NAME": "H-2A R/B",
    "OBJECT_TYPE": "ROCKET BODY",
    "CLASSIFICATION_TYPE": "U",
    "INTLDES": "18084L",
    "EPOCH": "2023-04-04 21:58:35",
    "EPOCH_MICROSECONDS": "874336",
    "MEAN_MOTION": "15.07592525",
    "ECCENTRICITY": "0.0052366",
    "INCLINATION": "98.8993",
    "RA_OF_ASC_NODE": "107.5415",
    "ARG_OF_PERICENTER": "26.7932",
    "MEAN_ANOMALY": "333.5979",
    "EPHEMERIS_TYPE": "0",
    "ELEMENT_SET_NO": "999",
    "REV_AT_EPOCH": "24317",
    "BSTAR": "0.00059848",
    "MEAN_MOTION_DOT": "0.00009319",
    "MEAN_MOTION_DDOT": "0",
    "FILE": "3880211",
    "TLE_LINE0": "0 H-2A R/B",
    "TLE_LINE1": "1 43682U 18084L   23094.91569299  .00009319  00000-0  59848-3 0  9991",
    "TLE_LINE2": "2 43682  98.8993 107.5415 0052366  26.7932 333.5979 15.07592525243172",
    "OBJECT_ID": "2018-084L",
    "OBJECT_NUMBER": "43682",
    "SEMIMAJOR_AXIS": "6921.696",
    "PERIOD": "95.517",
    "APOGEE": "579.807",
    "PERIGEE": "507.315",
    "DECAYED": "0"
  },
  {
    "COMMENT": "GENERATED VIA SPACETRACK.ORG API",
    "ORIGINATOR": "18 SPCS",
    "NORAD_CAT_ID": "43682",
    "OBJECT_NAME": "H-2A R/B",
    "OBJECT_TYPE": "ROCKET BODY",
    "CLASSIFICATION_TYPE": "U",
    "INTLDES": "18084L",
    "EPOCH": "2023-04-05 01:09:44",
    "EPOCH_MICROSECONDS": "737344",
    "MEAN_MOTION": "15.07595195",
    "ECCENTRICITY": "0.0052366",
    "INCLINATION": "98.8993",
    "RA_OF_ASC_NODE": "107.695",
    "ARG_OF_PERICENTER": "26.3579",
    "MEAN_ANOMALY": "334.0291",
    "EPHEMERIS_TYPE": "0",
    "ELEMENT_SET_NO": "999",
    "REV_AT_EPOCH": "24319",
    "BSTAR": "0.00059576",
    "MEAN_MOTION_DOT": "0.00009277",
    "MEAN_MOTION_DDOT": "0",
    "FILE": "3880346",
    "TLE_LINE0": "0 H-2A R/B",
    "TLE_LINE1": "1 43682U 18084L   23095.04843446  .00009277  00000-0  59576-3 0  9996",
    "TLE_LINE2": "2 43682  98.8993 107.6950 0052366  26.3579 334.0291 15.07595195243191",
    "OBJECT_ID": "2018-084L",
    "OBJECT_NUMBER": "43682",
    "SEMIMAJOR_AXIS": "6921.688",
    "PERIOD": "95.516",
    "APOGEE": "579.799",
    "PERIGEE": "507.307",
    "DECAYED": "0"
  },
  {
    "COMMENT": "GENERATED VIA SPACETRACK.ORG API",
    "ORIGINATOR": "18 SPCS",
    "NORAD_CAT_ID": "43682",
    "OBJECT_NAME": "H-2A R/B",
    "OBJECT_TYPE": "ROCKET BODY",
    "CLASSIFICATION_TYPE": "U",
    "INTLDES": "18084L",
    "EPOCH": "2023-04-05 13:54:19",
    "EPOCH_MICROSECONDS": "975104",
    "MEAN_MOTION": "15.07605608",
    "ECCENTRICITY": "0.0052325",
    "INCLINATION": "98.8993",
    "RA_OF_ASC_NODE": "108.309",
    "ARG_OF_PERICENTER": "24.6646",
    "MEAN_ANOMALY": "335.7063",
    "EPHEMERIS_TYPE": "0",
    "ELEMENT_SET_NO": "999",
    "REV_AT_EPOCH": "24327",
    "BSTAR": "0.00058238",
    "MEAN_MOTION_DOT": "0.00009069",
    "MEAN_MOTION_DDOT": "0",
    "FILE": "3880853",
    "TLE_LINE0": "0 H-2A R/B",
    "TLE_LINE1": "1 43682U 18084L   23095.57939786  .00009069  00000-0  58238-3 0  9990",
    "TLE_LINE2": "2 43682  98.8993 108.3090 0052325  24.6646 335.7063 15.07605608243270",
    "OBJECT_ID": "2018-084L",
    "OBJECT_NUMBER": "43682",
    "SEMIMAJOR_AXIS": "6921.656",
    "PERIOD": "95.516",
    "APOGEE": "579.739",
    "PERIGEE": "507.303",
    "DECAYED": "0"
  },
  {
    "COMMENT": "GENERATED VIA SPACETRACK.ORG API",
    "ORIGINATOR": "18 SPCS",
    "NORAD_CAT_ID": "43682",
    "OBJECT_NAME": "H-2A R/B",
    "OBJECT_TYPE": "ROCKET BODY",
    "CLASSIFICATION_TYPE": "U",
    "INTLDES": "18084L",
    "EPOCH": "2023-04-06 12:12:20",
    "EPOCH_MICROSECONDS": "930112",
    "MEAN_MOTION": "15.07622039",
    "ECCENTRICITY": "0.0052257",
    "INCLINATION": "98.8996",
    "RA_OF_ASC_NODE": "109.3835",
    "ARG_OF_PERICENTER": "21.6914",
    "MEAN_ANOMALY": "338.6506",
    "EPHEMERIS_TYPE": "0",
    "ELEMENT_SET_NO": "999",
    "REV_AT_EPOCH": "24341",
    "BSTAR": "0.00052751",
    "MEAN_MOTION_DOT": "0.00008208",
    "MEAN_MOTION_DDOT": "0",
    "FILE": "3881693",
    "TLE_LINE0": "0 H-2A R/B",
    "TLE_LINE1": "1 43682U 18084L   23096.50857558  .00008208  00000-0  52751-3 0  9998",
    "TLE_LINE2": "2 43682  98.8996 109.3835 0052257  21.6914 338.6506 15.07622039243417",
    "OBJECT_ID": "2018-084L",
    "OBJECT_NUMBER": "43682",
    "SEMIMAJOR_AXIS": "6921.606",
    "PERIOD": "95.515",
    "APOGEE": "579.641",
    "PERIGEE": "507.300",
    "DECAYED": "0"
  },
  {
    "COMMENT": "GENERATED VIA SPACETRACK.ORG API",
    "ORIGINATOR": "18 SPCS",
    "NORAD_CAT_ID": "43682",
    "OBJECT_NAME": "H-2A R/B",
    "OBJECT_TYPE": "ROCKET BODY",
    "CLASSIFICATION_TYPE": "U",
    "INTLDES": "18084L",
    "EPOCH": "2023-04-06 12:12:20",
    "EPOCH_MICROSECONDS": "930112",
    "MEAN_MOTION": "15.07622039",
    "ECCENTRICITY": "0.0052257",
    "INCLINATION": "98.8996",
    "RA_OF_ASC_NODE": "109.3835",
    "ARG_OF_PERICENTER": "21.6914",
    "MEAN_ANOMALY": "338.6506",
    "EPHEMERIS_TYPE": "0",
    "ELEMENT_SET_NO": "999",
    "REV_AT_EPOCH": "24341",
    "BSTAR": "0.00052751",
    "MEAN_MOTION_DOT": "0.00008208",
    "MEAN_MOTION_DDOT": "0",
    "FILE": "3881771",
    "TLE_LINE0": "0 H-2A R/B",
    "TLE_LINE1": "1 43682U 18084L   23096.50857558  .00008208  00000-0  52751-3 0  9998",
    "TLE_LINE2": "2 43682  98.8996 109.3835 0052257  21.6914 338.6506 15.07622039243417",
    "OBJECT_ID": "2018-084L",
    "OBJECT_NUMBER": "43682",
    "SEMIMAJOR_AXIS": "6921.606",
    "PERIOD": "95.515",
    "APOGEE": "579.641",
    "PERIGEE": "507.300",
    "DECAYED": "0"
  },
  {
    "COMMENT": "GENERATED VIA SPACETRACK.ORG API",
    "ORIGINATOR": "18 SPCS",
    "NORAD_CAT_ID": "43682",
    "OBJECT_NAME": "H-2A R/B",
    "OBJECT_TYPE": "ROCKET BODY",
    "CLASSIFICATION_TYPE": "U",
    "INTLDES": "18084L",
    "EPOCH": "2023-04-06 18:34:38",
    "EPOCH_MICROSECONDS": "179200",
    "MEAN_MOTION": "15.07626585",
    "ECCENTRICITY": "0.005223",
    "INCLINATION": "98.8996",
    "RA_OF_ASC_NODE": "109.6906",
    "ARG_OF_PERICENTER": "20.8325",
    "MEAN_ANOMALY": "339.5012",
    "EPHEMERIS_TYPE": "0",
    "ELEMENT_SET_NO": "999",
    "REV_AT_EPOCH": "24345",
    "BSTAR": "0.00052677",
    "MEAN_MOTION_DOT": "0.00008197",
    "MEAN_MOTION_DDOT": "0",
    "FILE": "3882049",
    "TLE_LINE0": "0 H-2A R/B",
    "TLE_LINE1": "1 43682U 18084L   23096.77405300  .00008197  00000-0  52677-3 0  9995",
    "TLE_LINE2": "2 43682  98.8996 109.6906 0052230  20.8325 339.5012 15.07626585243453",
    "OBJECT_ID": "2018-084L",
    "OBJECT_NUMBER": "43682",
    "SEMIMAJOR_AXIS": "6921.592",
    "PERIOD": "95.514",
    "APOGEE": "579.608",
    "PERIGEE": "507.305",
    "DECAYED": "0"
  },
  {
    "COMMENT": "GENERATED VIA SPACETRACK.ORG API",
    "ORIGINATOR": "18 SPCS",
    "NORAD_CAT_ID": "43682",
    "OBJECT_NAME": "H-2A R/B",
    "OBJECT_TYPE": "ROCKET BODY",
    "CLASSIFICATION_TYPE": "U",
    "INTLDES": "18084L",
    "EPOCH": "2023-04-07 12:05:55",
    "EPOCH_MICROSECONDS": "222368",
    "MEAN_MOTION": "15.07641027",
    "ECCENTRICITY": "0.0052132",
    "INCLINATION": "98.9",
    "RA_OF_ASC_NODE": "110.535",
    "ARG_OF_PERICENTER": "18.4946",
    "MEAN_ANOMALY": "341.8157",
    "EPHEMERIS_TYPE": "0",
    "ELEMENT_SET_NO": "999",
    "REV_AT_EPOCH": "24356",
    "BSTAR": "0.00055706",
    "MEAN_MOTION_DOT": "0.00008677",
    "MEAN_MOTION_DDOT": "0",
    "FILE": "3882626",
    "TLE_LINE0": "0 H-2A R/B",
    "TLE_LINE1": "1 43682U 18084L   23097.50411137  .00008677  00000-0  55706-3 0  9991",
    "TLE_LINE2": "2 43682  98.9000 110.5350 0052132  18.4946 341.8157 15.07641027243563",
    "OBJECT_ID": "2018-084L",
    "OBJECT_NUMBER": "43682",
    "SEMIMAJOR_AXIS": "6921.548",
    "PERIOD": "95.513",
    "APOGEE": "579.496",
    "PERIGEE": "507.329",
    "DECAYED": "0"
  },
  {
    "COMMENT": "GENERATED VIA SPACETRACK.ORG API",
    "ORIGINATOR": "18 SPCS",
    "NORAD_CAT_ID": "43682",
    "OBJECT_NAME": "H-2A R/B",
    "OBJECT_TYPE": "ROCKET BODY",
    "CLASSIFICATION_TYPE": "U",
    "INTLDES": "18084L",
    "EPOCH": "2023-04-07 18:28:12",
    "EPOCH_MICROSECONDS": "208800",
    "MEAN_MOTION": "15.07645191",
    "ECCENTRICITY": "0.0052113",
    "INCLINATION": "98.8999",
    "RA_OF_ASC_NODE": "110.8421",
    "ARG_OF_PERICENTER": "17.6553",
    "MEAN_ANOMALY": "342.6467",
    "EPHEMERIS_TYPE": "0",
    "ELEMENT_SET_NO": "999",
    "REV_AT_EPOCH": "24360",
    "BSTAR": "0.00055149",
    "MEAN_MOTION_DOT": "0.0000859",
    "MEAN_MOTION_DDOT": "0",
    "FILE": "3882711",
    "TLE_LINE0": "0 H-2A R/B",
    "TLE_LINE1": "1 43682U 18084L   23097.76958575  .00008590  00000-0  55149-3 0  9996",
    "TLE_LINE2": "2 43682  98.8999 110.8421 0052113  17.6553 342.6467 15.07645191243609",
    "OBJECT_ID": "2018-084L",
    "OBJECT_NUMBER": "43682",
    "SEMIMAJOR_AXIS": "6921.535",
    "PERIOD": "95.513",
    "APOGEE": "579.470",
    "PERIGEE": "507.330",
    "DECAYED": "0"
  },
  {
    "COMMENT": "GENERATED VIA SPACETRACK.ORG API",
    "ORIGINATOR": "18 SPCS",
    "NORAD_CAT_ID": "43682",
    "OBJECT_NAME": "H-2A R/B",
    "OBJECT_TYPE": "ROCKET BODY",
    "CLASSIFICATION_TYPE": "U",
    "INTLDES": "18084L",
    "EPOCH": "2023-04-08 11:59:28",
    "EPOCH_MICROSECONDS": "565952",
    "MEAN_MOTION": "15.07656807",
    "ECCENTRICITY": "0.0052034",
    "INCLINATION": "98.9002",
    "RA_OF_ASC_NODE": "111.6864",
    "ARG_OF_PERICENTER": "15.3299",
    "MEAN_ANOMALY": "344.9487",
    "EPHEMERIS_TYPE": "0",
    "ELEMENT_SET_NO": "999",
    "REV_AT_EPOCH": "24371",
    "BSTAR": "0.00049972",
    "MEAN_MOTION_DOT": "0.00007776",
    "MEAN_MOTION_DDOT": "0",
    "FILE": "3883527",
    "TLE_LINE0": "0 H-2A R/B",
    "TLE_LINE1": "1 43682U 18084L   23098.49963618  .00007776  00000-0  49972-3 0  9993",
    "TLE_LINE2": "2 43682  98.9002 111.6864 0052034  15.3299 344.9487 15.07656807243714",
    "OBJECT_ID": "2018-084L",
    "OBJECT_NUMBER": "43682",
    "SEMIMAJOR_AXIS": "6921.499",
    "PERIOD": "95.512",
    "APOGEE": "579.380",
    "PERIGEE": "507.349",
    "DECAYED": "0"
  }
]